{"updated_at":"2026-06-13T18:15:51.214023Z","count":200,"data":[{"NORAD_CAT_ID":"69329","OBJECT_NAME":"STARLINK-37733","OBJECT_ID":"2026-122A","EPOCH":"2026-06-13T14:00:01.999872","TLE_LINE1":"1 69329U 26122A   26164.58335648  .00014116  00000-0  74268-4 0  9997","TLE_LINE2":"2 69329  97.2839 193.8149 0000764  93.2405  66.3543 15.80830361  2772"},{"NORAD_CAT_ID":"69330","OBJECT_NAME":"STARLINK-37772","OBJECT_ID":"2026-122B","EPOCH":"2026-06-13T14:00:01.999872","TLE_LINE1":"1 69330U 26122B   26164.58335648 -.00004418  00000-0 -22329-4 0  9996","TLE_LINE2":"2 69330  97.2836 193.8266 0001317  95.0525  94.3976 15.80824315  2727"},{"NORAD_CAT_ID":"69331","OBJECT_NAME":"STARLINK-37768","OBJECT_ID":"2026-122C","EPOCH":"2026-06-13T14:00:01.999872","TLE_LINE1":"1 69331U 26122C   26164.58335648 -.00030778  00000-0 -16025-3 0  9990","TLE_LINE2":"2 69331  97.2837 193.8305 0001059 106.9676  91.9022 15.80851589  2723"},{"NORAD_CAT_ID":"69332","OBJECT_NAME":"STARLINK-37833","OBJECT_ID":"2026-122D","EPOCH":"2026-06-13T14:00:01.999872","TLE_LINE1":"1 69332U 26122D   26164.58335648 -.00008138  00000-0 -41766-4 0  9997","TLE_LINE2":"2 69332  97.2835 193.8322 0001099 105.5643  96.1162 15.80826408  2728"},{"NORAD_CAT_ID":"69333","OBJECT_NAME":"STARLINK-37818","OBJECT_ID":"2026-122E","EPOCH":"2026-06-13T14:00:01.999872","TLE_LINE1":"1 69333U 26122E   26164.58335648 -.00025922  00000-0 -13483-3 0  9992","TLE_LINE2":"2 69333  97.2835 193.8288 0001305 104.4570  86.1888 15.80841874  2770"},{"NORAD_CAT_ID":"69334","OBJECT_NAME":"STARLINK-37868","OBJECT_ID":"2026-122F","EPOCH":"2026-06-13T14:00:01.999872","TLE_LINE1":"1 69334U 26122F   26164.58335648 -.01189934  00000-0 -61743-2 0  9999","TLE_LINE2":"2 69334  97.2827 193.8435 0001414 103.5781 124.6699 15.83414664  2775"},{"NORAD_CAT_ID":"69335","OBJECT_NAME":"STARLINK-37877","OBJECT_ID":"2026-122G","EPOCH":"2026-06-13T14:00:01.999872","TLE_LINE1":"1 69335U 26122G   26164.58335648 -.01192264  00000-0 -61905-2 0  9990","TLE_LINE2":"2 69335  97.2826 193.8436 0001429  93.8569 135.1448 15.83405531  2779"},{"NORAD_CAT_ID":"69336","OBJECT_NAME":"STARLINK-37791","OBJECT_ID":"2026-122H","EPOCH":"2026-06-13T14:00:01.999872","TLE_LINE1":"1 69336U 26122H   26164.58335648 -.00797129  00000-0 -38682-2 0  9997","TLE_LINE2":"2 69336  97.2823 193.8467 0001122  95.4270 139.6849 15.84303893  2771"},{"NORAD_CAT_ID":"69337","OBJECT_NAME":"STARLINK-37765","OBJECT_ID":"2026-122J","EPOCH":"2026-06-13T14:00:01.999872","TLE_LINE1":"1 69337U 26122J   26164.58335648 -.01022551  00000-0 -57909-2 0  9992","TLE_LINE2":"2 69337  97.2830 193.8508 0001516  98.0974 146.0533 15.81579542  2824"},{"NORAD_CAT_ID":"69338","OBJECT_NAME":"STARLINK-37788","OBJECT_ID":"2026-122K","EPOCH":"2026-06-13T14:00:01.999872","TLE_LINE1":"1 69338U 26122K   26164.58335648 -.01299470  00000-0 -73495-2 0  9997","TLE_LINE2":"2 69338  97.2834 193.8526 0001749  99.7689 148.1920 15.81818009  2779"},{"NORAD_CAT_ID":"69339","OBJECT_NAME":"STARLINK-37743","OBJECT_ID":"2026-122L","EPOCH":"2026-06-13T14:00:01.999872","TLE_LINE1":"1 69339U 26122L   26164.58335648 -.00040438  00000-0 -21099-3 0  9999","TLE_LINE2":"2 69339  97.2834 193.8464 0001462 101.8510 133.3280 15.80852185  2778"},{"NORAD_CAT_ID":"69325","OBJECT_NAME":"QIANFAN-163","OBJECT_ID":"2026-121A","EPOCH":"2026-06-07T22:57:09.243936","TLE_LINE1":"1 69325U 26121A   26158.95635699  .00000032  00000-0  25988-4 0  9992","TLE_LINE2":"2 69325  89.0167 301.4498 0019200 214.2671 145.7248 13.60351284   905"},{"NORAD_CAT_ID":"69326","OBJECT_NAME":"QIANFAN-164","OBJECT_ID":"2026-121B","EPOCH":"2026-06-11T09:53:52.001952","TLE_LINE1":"1 69326U 26121B   26162.41240743  .00000112  00000-0  13228-3 0  9993","TLE_LINE2":"2 69326  89.0157 301.0998 0019383 205.3125 154.7084 13.60355109  1373"},{"NORAD_CAT_ID":"69327","OBJECT_NAME":"CZ-12B R/B","OBJECT_ID":"2026-121C","EPOCH":"2026-06-13T10:52:38.509536","TLE_LINE1":"1 69327U 26121C   26164.45322349  .00000181  00000-0  89081-4 0  9990","TLE_LINE2":"2 69327  89.0315 300.8268 0195532  19.0101 341.8246 14.04085419  1701"},{"NORAD_CAT_ID":"69309","OBJECT_NAME":"STARLINK-37619","OBJECT_ID":"2026-119P","EPOCH":"2026-06-13T14:11:15.517248","TLE_LINE1":"1 69309U 26119P   26164.59115182  .00209502  00000-0  10652-2 0  9991","TLE_LINE2":"2 69309  97.2817 190.2478 0001102  78.8403 281.2989 15.80882459  3471"},{"NORAD_CAT_ID":"69310","OBJECT_NAME":"STARLINK-37794","OBJECT_ID":"2026-119Q","EPOCH":"2026-06-13T14:08:26.638944","TLE_LINE1":"1 69310U 26119Q   26164.58919721 -.01148539  00000-0 -72389-2 0  9993","TLE_LINE2":"2 69310  97.2820 190.2505 0002440  42.4172 317.7284 15.79120497  3472"},{"NORAD_CAT_ID":"69311","OBJECT_NAME":"STARLINK-37795","OBJECT_ID":"2026-119R","EPOCH":"2026-06-13T14:00:01.999872","TLE_LINE1":"1 69311U 26119R   26164.58335648 -.02504315  00000-0 -31325-1 0  9997","TLE_LINE2":"2 69311  97.2842 190.1983 0002106  92.1300 127.9104 15.63320509  3460"},{"NORAD_CAT_ID":"69312","OBJECT_NAME":"STARLINK-37790","OBJECT_ID":"2026-119S","EPOCH":"2026-06-13T12:35:00.538656","TLE_LINE1":"1 69312U 26119S   26164.52431179  .00228839  00000-0  11598-2 0  9999","TLE_LINE2":"2 69312  97.2822 190.1859 0000788  86.5225 273.6134 15.80901203  3465"},{"NORAD_CAT_ID":"69313","OBJECT_NAME":"STARLINK-37676","OBJECT_ID":"2026-119T","EPOCH":"2026-06-13T14:03:15.045120","TLE_LINE1":"1 69313U 26119T   26164.58559080  .00126407  00000-0  64980-3 0  9990","TLE_LINE2":"2 69313  97.2825 190.2554 0001639  93.0001 267.1455 15.80861008  3476"},{"NORAD_CAT_ID":"69314","OBJECT_NAME":"STARLINK-37617","OBJECT_ID":"2026-119U","EPOCH":"2026-06-13T14:01:59.732832","TLE_LINE1":"1 69314U 26119U   26164.58471913  .00239359  00000-0  12119-2 0  9996","TLE_LINE2":"2 69314  97.2820 190.2562 0001385  84.6631 275.4795 15.80896258  3478"},{"NORAD_CAT_ID":"69315","OBJECT_NAME":"STARLINK-37627","OBJECT_ID":"2026-119V","EPOCH":"2026-06-13T12:30:23.234400","TLE_LINE1":"1 69315U 26119V   26164.52110225  .00195424  00000-0  99514-3 0  9996","TLE_LINE2":"2 69315  97.2825 190.1899 0001296 109.6559 250.4849 15.80885687  3460"},{"NORAD_CAT_ID":"69316","OBJECT_NAME":"STARLINK-37738","OBJECT_ID":"2026-119W","EPOCH":"2026-06-13T14:04:46.253280","TLE_LINE1":"1 69316U 26119W   26164.58664645  .00143614  00000-0  73646-3 0  9995","TLE_LINE2":"2 69316  97.2819 190.2536 0001352 107.4982 252.6434 15.80868678  3478"},{"NORAD_CAT_ID":"69317","OBJECT_NAME":"STARLINK-37799","OBJECT_ID":"2026-119X","EPOCH":"2026-06-13T14:02:33.846144","TLE_LINE1":"1 69317U 26119X   26164.58511396  .00237512  00000-0  12030-2 0  9990","TLE_LINE2":"2 69317  97.2820 190.2556 0001284  79.6139 280.5274 15.80893786  2223"},{"NORAD_CAT_ID":"69318","OBJECT_NAME":"STARLINK-37802","OBJECT_ID":"2026-119Y","EPOCH":"2026-06-13T13:59:38.798016","TLE_LINE1":"1 69318U 26119Y   26164.58308794  .00220147  00000-0  11181-2 0  9999","TLE_LINE2":"2 69318  97.2820 190.2592 0001589  96.6530 263.4920 15.80878885  3475"},{"NORAD_CAT_ID":"69319","OBJECT_NAME":"STARLINK-37803","OBJECT_ID":"2026-119Z","EPOCH":"2026-06-13T14:00:01.999872","TLE_LINE1":"1 69319U 26119Z   26164.58335648 -.02319868  00000-0 -16823-1 0  9998","TLE_LINE2":"2 69319  97.2835 190.2540 0001208  76.9629 273.7269 15.76668474  3413"},{"NORAD_CAT_ID":"69320","OBJECT_NAME":"OBJECT A","OBJECT_ID":"2026-120A","EPOCH":"2026-06-07T11:06:12.288672","TLE_LINE1":"1 69320U 26120A   26158.46264223  .00009002  00000-0  24096-3 0  9997","TLE_LINE2":"2 69320  54.9967  71.5399 0009599 294.3963  65.6063 15.38803685  1198"},{"NORAD_CAT_ID":"69321","OBJECT_NAME":"OBJECT B","OBJECT_ID":"2026-120B","EPOCH":"2026-06-13T08:54:05.544000","TLE_LINE1":"1 69321U 26120B   26164.37089750  .00009444  00000-0  25182-3 0  9992","TLE_LINE2":"2 69321  54.9985  44.9148 0009622 319.6353  40.3961 15.38860579  2100"},{"NORAD_CAT_ID":"69322","OBJECT_NAME":"OBJECT C","OBJECT_ID":"2026-120C","EPOCH":"2026-06-07T21:56:00.773376","TLE_LINE1":"1 69322U 26120C   26158.91389784  .00016153  00000-0  41736-3 0  9994","TLE_LINE2":"2 69322  54.9968  69.4792 0009850 309.3319  50.6835 15.39284097  1266"},{"NORAD_CAT_ID":"69323","OBJECT_NAME":"OBJECT D","OBJECT_ID":"2026-120D","EPOCH":"2026-06-13T04:08:41.870112","TLE_LINE1":"1 69323U 26120D   26164.17270683  .00004137  00000-0  11569-3 0  9997","TLE_LINE2":"2 69323  54.9983  45.7696 0010770 333.5436  26.5041 15.38955339  2070"}]}