OBJECT_NAME,OBJECT_ID,EPOCH,MEAN_MOTION,ECCENTRICITY,INCLINATION,RA_OF_ASC_NODE,ARG_OF_PERICENTER,MEAN_ANOMALY,EPHEMERIS_TYPE,CLASSIFICATION_TYPE,NORAD_CAT_ID,ELEMENT_SET_NO,REV_AT_EPOCH,BSTAR,MEAN_MOTION_DOT,MEAN_MOTION_DDOT
STARLINK-37619,2026-119P,2026-06-13T14:11:15.517248,15.80882459,.00011023,97.2817,190.2478,78.8403,281.2989,0,U,69309,999,347,.10651974E-2,.209502E-2,0
STARLINK-37794,2026-119Q,2026-06-13T14:08:26.638944,15.79120497,.000244,97.2820,190.2505,42.4172,317.7284,0,U,69310,999,347,-.72388766E-2,-.1148539E-1,0
STARLINK-37795,2026-119R,2026-06-13T14:00:01.999872,15.63320509,.00021058,97.2842,190.1983,92.1300,127.9104,0,U,69311,999,346,-.31324675E-1,-.2504315E-1,0
STARLINK-37790,2026-119S,2026-06-13T12:35:00.538656,15.80901203,.00007875,97.2822,190.1859,86.5225,273.6134,0,U,69312,999,346,.11598474E-2,.228839E-2,0
STARLINK-37676,2026-119T,2026-06-13T14:03:15.045120,15.80861008,.00016385,97.2825,190.2554,93.0001,267.1455,0,U,69313,999,347,.64980348E-3,.126407E-2,0
STARLINK-37617,2026-119U,2026-06-13T14:01:59.732832,15.80896258,.00013849,97.2820,190.2562,84.6631,275.4795,0,U,69314,999,347,.12119395E-2,.239359E-2,0
STARLINK-37627,2026-119V,2026-06-13T12:30:23.234400,15.80885687,.00012964,97.2825,190.1899,109.6559,250.4849,0,U,69315,999,346,.99513619E-3,.195424E-2,0
STARLINK-37738,2026-119W,2026-06-13T14:04:46.253280,15.80868678,.00013516,97.2819,190.2536,107.4982,252.6434,0,U,69316,999,347,.73645549E-3,.143614E-2,0
STARLINK-37799,2026-119X,2026-06-13T14:02:33.846144,15.80893786,.00012839,97.2820,190.2556,79.6139,280.5274,0,U,69317,999,222,.12029836E-2,.237512E-2,0
STARLINK-37802,2026-119Y,2026-06-13T13:59:38.798016,15.80878885,.00015891,97.2820,190.2592,96.6530,263.4920,0,U,69318,999,347,.11180812E-2,.220147E-2,0
STARLINK-37803,2026-119Z,2026-06-13T14:00:01.999872,15.76668474,.00012083,97.2835,190.2540,76.9629,273.7269,0,U,69319,999,341,-.16823294E-1,-.2319868E-1,0
GUOWANG TEST OBJECT A,2026-120A,2026-06-07T11:06:12.288672,15.38803685,.00095994,54.9967,71.5399,294.3963,65.6063,0,U,69320,999,119,.24095813E-3,.9002E-4,0
GUOWANG TEST OBJECT B,2026-120B,2026-06-13T08:54:05.544000,15.38860579,.00096218,54.9985,44.9148,319.6353,40.3961,0,U,69321,999,210,.25182125E-3,.9444E-4,0
GUOWANG TEST OBJECT C,2026-120C,2026-06-07T21:56:00.773376,15.39284097,.00098504,54.9968,69.4792,309.3319,50.6835,0,U,69322,999,126,.41735581E-3,.16153E-3,0
GUOWANG TEST OBJECT D,2026-120D,2026-06-13T04:08:41.870112,15.38955339,.001077,54.9983,45.7696,333.5436,26.5041,0,U,69323,999,207,.11569E-3,.4137E-4,0
QIANFAN-163,2026-121A,2026-06-07T22:57:09.243936,13.60351284,.00192,89.0167,301.4498,214.2671,145.7248,0,U,69325,999,90,.25988E-4,.32E-6,0
QIANFAN-164,2026-121B,2026-06-11T09:53:52.001952,13.60355109,.0019383,89.0157,301.0998,205.3125,154.7084,0,U,69326,999,137,.13228E-3,.112E-5,0
CZ-12B R/B,2026-121C,2026-06-13T10:52:38.509536,14.04085419,.01955318,89.0315,300.8268,19.0101,341.8246,0,U,69327,999,170,.89081417E-4,.181E-5,0
STARLINK-37733,2026-122A,2026-06-13T14:00:01.999872,15.80830361,.00007645,97.2839,193.8149,93.2405,66.3543,0,U,69329,999,277,.74267553E-4,.14116E-3,0
STARLINK-37772,2026-122B,2026-06-13T14:00:01.999872,15.80824315,.00013171,97.2836,193.8266,95.0525,94.3976,0,U,69330,999,272,-.22329341E-4,-.4418E-4,0
STARLINK-37768,2026-122C,2026-06-13T14:00:01.999872,15.80851589,.00010594,97.2837,193.8305,106.9676,91.9022,0,U,69331,999,272,-.16024865E-3,-.30778E-3,0
STARLINK-37833,2026-122D,2026-06-13T14:00:01.999872,15.80826408,.00010987,97.2835,193.8322,105.5643,96.1162,0,U,69332,999,272,-.41766093E-4,-.8138E-4,0
STARLINK-37818,2026-122E,2026-06-13T14:00:01.999872,15.80841874,.00013051,97.2835,193.8288,104.4570,86.1888,0,U,69333,999,277,-.13482843E-3,-.25922E-3,0
STARLINK-37868,2026-122F,2026-06-13T14:00:01.999872,15.83414664,.00014136,97.2827,193.8435,103.5781,124.6699,0,U,69334,999,277,-.61743409E-2,-.1189934E-1,0
STARLINK-37877,2026-122G,2026-06-13T14:00:01.999872,15.83405531,.0001429,97.2826,193.8436,93.8569,135.1448,0,U,69335,999,277,-.61905116E-2,-.1192264E-1,0
STARLINK-37791,2026-122H,2026-06-13T14:00:01.999872,15.84303893,.0001122,97.2823,193.8467,95.4270,139.6849,0,U,69336,999,277,-.38681571E-2,-.797129E-2,0
STARLINK-37765,2026-122J,2026-06-13T14:00:01.999872,15.81579542,.0001516,97.2830,193.8508,98.0974,146.0533,0,U,69337,999,282,-.57908508E-2,-.1022551E-1,0
STARLINK-37788,2026-122K,2026-06-13T14:00:01.999872,15.81818009,.00017494,97.2834,193.8526,99.7689,148.1920,0,U,69338,999,277,-.73495421E-2,-.129947E-1,0
STARLINK-37743,2026-122L,2026-06-13T14:00:01.999872,15.80852185,.00014622,97.2834,193.8464,101.8510,133.3280,0,U,69339,999,277,-.2109934E-3,-.40438E-3,0
